{
  "norad_id": 55169,
  "name": "ONEWEB-0628",
  "history": [
    {
      "epoch": "2026-04-13T05:20:01.679424Z",
      "apogee_km": 1214.753721455566,
      "perigee_km": 1212.6926832478312,
      "latitude_deg": -2.6949792225737623e-05,
      "longitude_deg": 82.1338809014409,
      "height_km": 1216.807005338027,
      "semi_major_axis_km": 7591.860202351699,
      "eccentricity": 0.00013574,
      "inclination_deg": 87.9011,
      "raan_deg": 3.557,
      "arg_perigee_deg": 100.9165,
      "mean_anomaly_deg": 259.2116,
      "mean_motion_rev_day": 13.12443023
    },
    {
      "epoch": "2026-04-14T10:36:31.868928Z",
      "apogee_km": 1214.7831312148219,
      "perigee_km": 1212.6669755860567,
      "latitude_deg": 2.1345472038338715e-05,
      "longitude_deg": 1.5639104972448095,
      "height_km": 1216.8326990934613,
      "semi_major_axis_km": 7591.8620534004385,
      "eccentricity": 0.00013937,
      "inclination_deg": 87.9008,
      "raan_deg": 3.3151,
      "arg_perigee_deg": 101.9486,
      "mean_anomaly_deg": 258.1799,
      "mean_motion_rev_day": 13.12442543
    },
    {
      "epoch": "2026-04-15T17:42:49.095936Z",
      "apogee_km": 1214.831687121945,
      "perigee_km": 1212.6239728293885,
      "latitude_deg": -2.904877245657436e-05,
      "longitude_deg": -106.54259636111466,
      "height_km": 1216.8529464812473,
      "semi_major_axis_km": 7591.864829975666,
      "eccentricity": 0.0001454,
      "inclination_deg": 87.9011,
      "raan_deg": 3.0578,
      "arg_perigee_deg": 102.3775,
      "mean_anomaly_deg": 257.7516,
      "mean_motion_rev_day": 13.12441823
    },
    {
      "epoch": "2026-04-16T10:10:51.174624Z",
      "apogee_km": 1214.8507831199122,
      "perigee_km": 1212.606627617406,
      "latitude_deg": 5.667077025243002e-06,
      "longitude_deg": 5.636459347621165,
      "height_km": 1216.8586733297448,
      "semi_major_axis_km": 7591.865705368659,
      "eccentricity": 0.0001478,
      "inclination_deg": 87.901,
      "raan_deg": 2.9218,
      "arg_perigee_deg": 102.4293,
      "mean_anomaly_deg": 257.7001,
      "mean_motion_rev_day": 13.12441596
    },
    {
      "epoch": "2026-04-17T22:46:29.279136Z",
      "apogee_km": 1214.8928670502783,
      "perigee_km": 1212.5662636226652,
      "latitude_deg": 8.668541000131335e-05,
      "longitude_deg": 174.9228368824625,
      "height_km": 1216.8937281800615,
      "semi_major_axis_km": 7591.8665653364715,
      "eccentricity": 0.00015323,
      "inclination_deg": 87.9005,
      "raan_deg": 2.6198,
      "arg_perigee_deg": 103.7141,
      "mean_anomaly_deg": 256.4159,
      "mean_motion_rev_day": 13.12441373
    },
    {
      "epoch": "2026-04-18T15:14:31.457184Z",
      "apogee_km": 1214.8904433623693,
      "perigee_km": 1212.5703686830902,
      "latitude_deg": -2.152772932833149e-05,
      "longitude_deg": -72.8986290277906,
      "height_km": 1216.9056981686488,
      "semi_major_axis_km": 7591.8674060227295,
      "eccentricity": 0.0001528,
      "inclination_deg": 87.9006,
      "raan_deg": 2.4837,
      "arg_perigee_deg": 104.3184,
      "mean_anomaly_deg": 255.8114,
      "mean_motion_rev_day": 13.12441155
    }
  ]
}